     2.100          NAVIGATION                              RINEX VERSION / TYPE
fic2rin                                 12/15/2009 01:25:17 PGM / RUN BY / DATE
                                                            END OF HEADER
29 09 12 14  6  0  0.0  .820090062916D-04  .306954461848D-11  .000000000000D+00
     .610000000000D+02  .153125000000D+01  .495556356197D-08  .166456046797D+01
    -.353902578354D-07  .286505778786D-02  .532902777195D-05  .515354283714D+04
     .108000000000D+06  .856816768646D-07  .123439923611D+01 -.465661287308D-07
     .959771166619D+00  .275343750000D+03 -.127188826593D+01 -.805462122159D-08
    -.160720980388D-10  .100000000000D+01  .156200000000D+04  .000000000000D+00
     .240000000000D+01  .000000000000D+00 -.884756445885D-08  .610000000000D+02
     .100806000000D+06  .400000000000D+01
30 09 12 14  6  0  0.0  .201421789825D-03  .329691829393D-11  .000000000000D+00
     .500000000000D+02 -.331250000000D+02  .465197948790D-08  .465730620578D-01
    -.172853469849D-05  .118935079081D-01  .998377799988D-05  .515364173889D+04
     .108000000000D+06 -.113621354103D-06  .115313734937D+00  .428408384323D-07
     .954549371236D+00  .185187500000D+03  .147019018945D+01 -.809355141462D-08
     .458947688442D-09  .100000000000D+01  .156200000000D+04  .000000000000D+00
     .240000000000D+01  .000000000000D+00 -.791624188423D-08  .500000000000D+02
     .100806000000D+06  .400000000000D+01
31 09 12 14  6  0  0.0 -.586807727814D-04  .102318153949D-11  .000000000000D+00
     .680000000000D+02 -.135625000000D+03  .408302721733D-08  .237653796359D+01
    -.686198472977D-05  .743611576036D-02  .649131834507D-05  .515358121490D+04
     .108000000000D+06  .119209289551D-06 -.887589138416D+00 -.242143869400D-07
     .975215915463D+00  .260125000000D+03 -.113656201501D+01 -.775460872487D-08
    -.213937482783D-09  .100000000000D+01  .156200000000D+04  .000000000000D+00
     .240000000000D+01  .000000000000D+00 -.130385160446D-07  .680000000000D+02
     .100806000000D+06  .400000000000D+01
32 09 12 14  6  0  0.0  .138450879604D-03 -.773070496507D-11  .000000000000D+00
     .960000000000D+02  .136875000000D+03  .417838833236D-08 -.307989070864D+01
     .698491930962D-05  .131190069951D-01  .659376382828D-05  .515364976883D+04
     .108000000000D+06  .745058059692D-07 -.289749032429D+01  .208616256714D-06
     .961692907010D+00  .248562500000D+03 -.105699637594D+01 -.775925177541D-08
     .178578867098D-09  .100000000000D+01  .156200000000D+04  .000000000000D+00
     .240000000000D+01  .000000000000D+00 -.325962901115D-08  .960000000000D+02
     .100806000000D+06  .400000000000D+01
27 09 12 14  5 59 44.0  .108229462057D-03  .329691829393D-11  .000000000000D+00
     .100000000000D+01 -.130343750000D+03  .412517182996D-08 -.146284254734D+01
    -.621192157269D-05  .216777982423D-01  .721961259842D-05  .515370289993D+04
     .107984000000D+06 -.100582838058D-06 -.943466015672D+00  .558793544769D-06
     .976734036756D+00  .247593750000D+03 -.150476245613D+01 -.790604360416D-08
    -.143577409147D-09  .100000000000D+01  .156200000000D+04  .000000000000D+00
     .240000000000D+01  .000000000000D+00 -.419095158577D-08  .100000000000D+01
     .102486000000D+06  .400000000000D+01
24 09 12 14  5 59 44.0  .244830735028D-03  .329691829393D-11  .000000000000D+00
     .100000000000D+02  .238125000000D+02  .467590905610D-08  .181503454656D+00
     .124983489513D-05  .611857045442D-02  .998564064503D-05  .515367171288D+04
     .107984000000D+06  .745058059692D-08  .230414102687D+01 -.108033418655D-06
     .949707947719D+00  .179718750000D+03 -.565809999160D+00 -.801961976364D-08
    -.531093550750D-09  .100000000000D+01  .156200000000D+04  .000000000000D+00
     .240000000000D+01  .630000000000D+02 -.139698386192D-08  .100000000000D+02
     .102846000000D+06  .400000000000D+01
16 09 12 14  5 59 44.0 -.191940926015D-04 -.420641299570D-11  .000000000000D+00
     .360000000000D+02 -.258125000000D+02  .417588822822D-08  .153210883791D+00
    -.143796205521D-05  .541817047633D-02  .979192554951D-05  .515367668724D+04
     .107984000000D+06  .558793544769D-07  .183485950035D+00 -.726431608200D-07
     .970659861914D+00  .196593750000D+03 -.273001746384D+00 -.775818030221D-08
     .446447167745D-09  .100000000000D+01  .156200000000D+04  .000000000000D+00
     .240000000000D+01  .000000000000D+00 -.977888703346D-08  .360000000000D+02
     .103656000000D+06  .400000000000D+01
25 09 12 14  5 59 44.0  .527291558683D-04  .114823706099D-10  .000000000000D+00
     .110000000000D+02 -.122781250000D+03  .432339437244D-08  .740098284796D+00
    -.653788447380D-05  .114559869980D-01  .664778053761D-05  .515369908333D+04
     .107984000000D+06 -.111758708954D-06 -.980516774254D+00 -.169500708580D-06
     .971835579916D+00  .260968750000D+03 -.122020218668D+01 -.815462538717D-08
    -.143220251413D-09  .100000000000D+01  .156200000000D+04  .000000000000D+00
     .240000000000D+01  .000000000000D+00 -.745058059692D-08  .110000000000D+02
     .104736000000D+06  .400000000000D+01
12 09 12 14  5 59 44.0 -.176825560629D-03  .511590769747D-11  .000000000000D+00
     .400000000000D+01 -.306250000000D+02  .420981821297D-08  .255646494261D+01
    -.160560011864D-05  .322335097007D-02  .999309122562D-05  .515379418755D+04
     .107984000000D+06  .391155481339D-07  .166272265519D+00  .130385160446D-06
     .969344597619D+00  .188562500000D+03 -.563451320249D+00 -.764067540766D-08
     .500735143343D-09  .100000000000D+01  .156200000000D+04  .000000000000D+00
     .240000000000D+01  .000000000000D+00 -.121071934700D-07  .400000000000D+01
     .106686000000D+06  .400000000000D+01
12 09 12 14  7 59 44.0 -.176788307726D-03  .511590769747D-11  .000000000000D+00
     .500000000000D+01 -.231250000000D+02  .420981821297D-08 -.267663395490D+01
    -.118464231491D-05  .322455354035D-02  .102408230305D-04  .515379193878D+04
     .115184000000D+06 -.521540641785D-07  .166217214448D+00  .838190317154D-07
     .969348582608D+00  .183937500000D+03 -.563432075562D+00 -.759638784862D-08
     .548237121991D-09  .100000000000D+01  .156200000000D+04  .000000000000D+00
     .240000000000D+01  .000000000000D+00 -.121071934700D-07  .500000000000D+01
     .108006000000D+06  .400000000000D+01
16 09 12 14  7 59 44.0 -.192243605852D-04 -.420641299570D-11  .000000000000D+00
     .370000000000D+02 -.327500000000D+02  .423446209663D-08  .120352964142D+01
    -.155158340931D-05  .541747000534D-02  .974908471107D-05  .515367474174D+04
     .115184000000D+06  .949949026108D-07  .183430679527D+00  .223517417908D-07
     .970663350973D+00  .193281250000D+03 -.273143437315D+00 -.766639076452D-08
     .415017287136D-09  .100000000000D+01  .156200000000D+04  .000000000000D+00
     .240000000000D+01  .000000000000D+00 -.977888703346D-08  .370000000000D+02
     .108006000000D+06  .400000000000D+01
24 09 12 14  7 59 44.0  .244854483753D-03  .329691829393D-11  .000000000000D+00
     .110000000000D+02  .278125000000D+02  .453840332843D-08  .123160539466D+01
     .145286321640D-05  .611883623060D-02  .985711812973D-05  .515367270470D+04
     .115184000000D+06  .167638063431D-06  .230408424371D+01  .391155481339D-07
     .949704918016D+00  .182406250000D+03 -.565729355801D+00 -.781175396234D-08
    -.570738059245D-09  .100000000000D+01  .156200000000D+04  .000000000000D+00
     .240000000000D+01  .630000000000D+02 -.139698386192D-08  .110000000000D+02
     .108006000000D+06  .400000000000D+01
25 09 12 14  7 59 44.0  .528115779161D-04  .114823706099D-10  .000000000000D+00
     .120000000000D+02 -.124593750000D+03  .410588531232D-08  .179008611719D+01
    -.657141208649D-05  .114568617428D-01  .567734241486D-05  .515370318413D+04
     .115184000000D+06  .227242708206D-06 -.980574062126D+00 -.577419996262D-07
     .971836071456D+00  .276656250000D+03 -.122002853977D+01 -.780318217672D-08
    -.169649923743D-09  .100000000000D+01  .156200000000D+04  .000000000000D+00
     .240000000000D+01  .000000000000D+00 -.745058059692D-08  .120000000000D+02
     .108006000000D+06  .400000000000D+01
27 09 12 14  7 59 44.0  .108253676444D-03  .329691829393D-11  .000000000000D+00
     .200000000000D+01 -.124031250000D+03  .411481425567D-08 -.412656922577D+00
    -.658258795738D-05  .216783934738D-01  .758282840252D-05  .515370441437D+04
     .115184000000D+06 -.314787030220D-06 -.943525827078D+00  .968575477600D-07
     .976732231515D+00  .246531250000D+03 -.150478735646D+01 -.826320133836D-08
    -.217866217860D-10  .100000000000D+01  .156200000000D+04  .000000000000D+00
     .240000000000D+01  .000000000000D+00 -.419095158577D-08  .200000000000D+01
     .108006000000D+06  .400000000000D+01
 1 09 12 14  8  0  0.0 -.707800500095D-04 -.272848410532D-11  .000000000000D+00
     .480000000000D+02 -.309062500000D+02  .564630661991D-08  .150360257568D+01
    -.158324837685D-05  .380794401281D-02  .998750329018D-05  .515366770935D+04
     .115200000000D+06 -.109896063805D-06  .152814835294D+00  .651925802231D-07
     .963259796140D+00  .186562500000D+03  .958539568072D+00 -.777496671571D-08
     .558237538548D-09  .100000000000D+01  .156200000000D+04  .000000000000D+00
     .240000000000D+01  .630000000000D+02 -.190921127796D-07  .480000000000D+02
     .108006000000D+06  .400000000000D+01
 2 09 12 14  8  0  0.0  .203375238925D-03  .454747350886D-11  .000000000000D+00
     .230000000000D+02  .156562500000D+02  .487163149443D-08 -.107637869021D+01
     .832602381706D-06  .920643773861D-02  .925920903683D-05  .515374559593D+04
     .115200000000D+06 -.223517417908D-07  .223862169814D+01 -.206753611565D-06
     .940313586670D+00  .193718750000D+03  .292678635162D+01 -.799676166865D-08
    -.462876423518D-09  .100000000000D+01  .156200000000D+04  .000000000000D+00
     .240000000000D+01  .000000000000D+00 -.172294676304D-07  .230000000000D+02
     .108006000000D+06  .400000000000D+01
